ONEWEB-0066             
1 45424U 20020A   23280.37577382  .00000064  00000+0  14396-3 0  9995
2 45424  87.8981 216.4980 0002334  68.5885 291.5492 13.11418588173737
ONEWEB-0067             
1 45425U 20020B   23280.55186904 -.00000983  00000+0 -28105-2 0  9996
2 45425  87.8982 216.4371 0002157  81.5464 278.5908 13.11419934173816
ONEWEB-0080             
1 45426U 20020C   23280.34817820  .00001272  00000+0  35526-2 0  9997
2 45426  87.8987 216.5055 0002254  67.2445 292.8921 13.11416844173754
ONEWEB-0090             
1 45427U 20020D   23280.51859616 -.00000721  00000+0 -20699-2 0  9991
2 45427  87.8978 216.4518 0002057  68.5362 291.5985 13.11413628173743
ONEWEB-0061             
1 45428U 20020E   23280.55105999 -.00000489  00000+0 -14145-2 0  9994
2 45428  87.8985 216.4465 0002044  76.7701 283.3655 13.11422280173700
ONEWEB-0081             
1 45429U 20020F   23280.53158180 -.00000472  00000+0 -13672-2 0  9999
2 45429  87.8981 216.4691 0002193  76.2638 283.8734 13.11416766173814
ONEWEB-0069             
1 45430U 20020G   23280.52183839  .00000309  00000+0  83556-3 0  9995
2 45430  87.8974 216.4633 0002019  72.0238 288.1109 13.11427799173745
ONEWEB-0031             
1 45431U 20020H   23280.34002129 -.00000353  00000+0 -10324-2 0  9991
2 45431  87.8982 216.4928 0001743  80.8282 279.3043 13.11415705173700
